{
  "type": "FeatureCollection",
  "features": [
    {
      "type": "Feature",
      "properties": {
        "norad_id": 67095,
        "name": "STARLINK-36227",
        "group": "last-30-days",
        "lat": 64.54014811333886,
        "lon": -11.824619647682063,
        "alt_km": 309.96875698429994,
        "timestamp": "2025-12-23T22:42:31.704618+00:00",
        "meta_object_name": "STARLINK-36227",
        "meta_object_id": "2025-298W",
        "meta_epoch": "2025-12-23T06:00:00.999648",
        "meta_mean_motion": 15.88176114,
        "meta_eccentricity": 0.00036476,
        "meta_inclination": 69.9955,
        "meta_ra_of_asc_node": 220.1069,
        "meta_arg_of_pericenter": 278.3008,
        "meta_mean_anomaly": 171.9243,
        "meta_ephemeris_type": 0,
        "meta_classification_type": "U",
        "meta_norad_cat_id": 67095,
        "meta_element_set_no": 999,
        "meta_rev_at_epoch": 260,
        "meta_bstar": -0.0073627612,
        "meta_mean_motion_dot": -0.01752613,
        "meta_mean_motion_ddot": 0,
        "tle_line1": "1 67095U 25298W   25357.25001157 -.01752613  00000+0 -73628-2 0  9990",
        "tle_line2": "2 67095  69.9955 220.1069 0003647 278.3008 171.9243 15.88176114  2607"
      },
      "geometry": {
        "type": "Point",
        "coordinates": [
          -11.824619647682063,
          64.54014811333886
        ]
      }
    },
    {
      "type": "Feature",
      "properties": {
        "norad_id": 67096,
        "name": "STARLINK-36228",
        "group": "last-30-days",
        "lat": 63.42048503609299,
        "lon": -8.635910049036575,
        "alt_km": 310.16621922930517,
        "timestamp": "2025-12-23T22:42:31.704632+00:00",
        "meta_object_name": "STARLINK-36228",
        "meta_object_id": "2025-298X",
        "meta_epoch": "2025-12-23T06:00:00.999648",
        "meta_mean_motion": 15.88186578,
        "meta_eccentricity": 0.00038123,
        "meta_inclination": 69.9956,
        "meta_ra_of_asc_node": 220.1051,
        "meta_arg_of_pericenter": 275.7071,
        "meta_mean_anomaly": 176.2982,
        "meta_ephemeris_type": 0,
        "meta_classification_type": "U",
        "meta_norad_cat_id": 67096,
        "meta_element_set_no": 999,
        "meta_rev_at_epoch": 260,
        "meta_bstar": -0.0073908257,
        "meta_mean_motion_dot": -0.01759399,
        "meta_mean_motion_ddot": 0,
        "tle_line1": "1 67096U 25298X   25357.25001157 -.01759399  00000+0 -73908-2 0  9990",
        "tle_line2": "2 67096  69.9956 220.1051 0003812 275.7071 176.2982 15.88186578  2608"
      },
      "geometry": {
        "type": "Point",
        "coordinates": [
          -8.635910049036575,
          63.42048503609299
        ]
      }
    },
    {
      "type": "Feature",
      "properties": {
        "norad_id": 67097,
        "name": "STARLINK-36222",
        "group": "last-30-days",
        "lat": 62.08449387280929,
        "lon": -5.34667191403252,
        "alt_km": 310.30276689593484,
        "timestamp": "2025-12-23T22:42:31.704642+00:00",
        "meta_object_name": "STARLINK-36222",
        "meta_object_id": "2025-298Y",
        "meta_epoch": "2025-12-23T06:00:00.999648",
        "meta_mean_motion": 15.8818624,
        "meta_eccentricity": 0.00038253,
        "meta_inclination": 69.9957,
        "meta_ra_of_asc_node": 220.1027,
        "meta_arg_of_pericenter": 274.8304,
        "meta_mean_anomaly": 179.1942,
        "meta_ephemeris_type": 0,
        "meta_classification_type": "U",
        "meta_norad_cat_id": 67097,
        "meta_element_set_no": 999,
        "meta_rev_at_epoch": 260,
        "meta_bstar": -0.0074058084,
        "meta_mean_motion_dot": -0.01762466,
        "meta_mean_motion_ddot": 0,
        "tle_line1": "1 67097U 25298Y   25357.25001157 -.01762466  00000+0 -74058-2 0  9997",
        "tle_line2": "2 67097  69.9957 220.1027 0003825 274.8304 179.1942 15.88186240  2600"
      },
      "geometry": {
        "type": "Point",
        "coordinates": [
          -5.34667191403252,
          62.08449387280929
        ]
      }
    },
    {
      "type": "Feature",
      "properties": {
        "norad_id": 67098,
        "name": "STARLINK-36205",
        "group": "last-30-days",
        "lat": 60.54495162230563,
        "lon": -2.0812922719325266,
        "alt_km": 310.3122338110379,
        "timestamp": "2025-12-23T22:42:31.704652+00:00",
        "meta_object_name": "STARLINK-36205",
        "meta_object_id": "2025-298Z",
        "meta_epoch": "2025-12-23T06:00:00.999648",
        "meta_mean_motion": 15.88178734,
        "meta_eccentricity": 0.00036708,
        "meta_inclination": 69.9955,
        "meta_ra_of_asc_node": 220.0999,
        "meta_arg_of_pericenter": 271.2833,
        "meta_mean_anomaly": 184.9584,
        "meta_ephemeris_type": 0,
        "meta_classification_type": "U",
        "meta_norad_cat_id": 67098,
        "meta_element_set_no": 999,
        "meta_rev_at_epoch": 266,
        "meta_bstar": -0.0074121167,
        "meta_mean_motion_dot": -0.01762973,
        "meta_mean_motion_ddot": 0,
        "tle_line1": "1 67098U 25298Z   25357.25001157 -.01762973  00000+0 -74121-2 0  9992",
        "tle_line2": "2 67098  69.9955 220.0999 0003670 271.2833 184.9584 15.88178734  2663"
      },
      "geometry": {
        "type": "Point",
        "coordinates": [
          -2.0812922719325266,
          60.54495162230563
        ]
      }
    },
    {
      "type": "Feature",
      "properties": {
        "norad_id": 67099,
        "name": "STARLINK-36193",
        "group": "last-30-days",
        "lat": 57.92363610842678,
        "lon": 2.546653577374767,
        "alt_km": 310.6682266030284,
        "timestamp": "2025-12-23T22:42:31.704662+00:00",
        "meta_object_name": "STARLINK-36193",
        "meta_object_id": "2025-298AA",
        "meta_epoch": "2025-12-23T06:00:00.999648",
        "meta_mean_motion": 15.88184429,
        "meta_eccentricity": 0.00037948,
        "meta_inclination": 69.9956,
        "meta_ra_of_asc_node": 220.0959,
        "meta_arg_of_pericenter": 274.649,
        "meta_mean_anomaly": 185.0916,
        "meta_ephemeris_type": 0,
        "meta_classification_type": "U",
        "meta_norad_cat_id": 67099,
        "meta_element_set_no": 999,
        "meta_rev_at_epoch": 260,
        "meta_bstar": -0.0073808196,
        "meta_mean_motion_dot": -0.01757156,
        "meta_mean_motion_ddot": 0,
        "tle_line1": "1 67099U 25298AA  25357.25001157 -.01757156  00000+0 -73808-2 0  9991",
        "tle_line2": "2 67099  69.9956 220.0959 0003794 274.6490 185.0916 15.88184429  2607"
      },
      "geometry": {
        "type": "Point",
        "coordinates": [
          2.546653577374767,
          57.92363610842678
        ]
      }
    },
    {
      "type": "Feature",
      "properties": {
        "norad_id": 67100,
        "name": "STARLINK-36215",
        "group": "last-30-days",
        "lat": 56.449904409366766,
        "lon": 4.762211337461807,
        "alt_km": 310.67927349288493,
        "timestamp": "2025-12-23T22:42:31.704672+00:00",
        "meta_object_name": "STARLINK-36215",
        "meta_object_id": "2025-298AB",
        "meta_epoch": "2025-12-23T06:00:00.999648",
        "meta_mean_motion": 15.8818388,
        "meta_eccentricity": 0.00035894,
        "meta_inclination": 69.9956,
        "meta_ra_of_asc_node": 220.0935,
        "meta_arg_of_pericenter": 274.9843,
        "meta_mean_anomaly": 186.6486,
        "meta_ephemeris_type": 0,
        "meta_classification_type": "U",
        "meta_norad_cat_id": 67100,
        "meta_element_set_no": 999,
        "meta_rev_at_epoch": 266,
        "meta_bstar": -0.0073650621,
        "meta_mean_motion_dot": -0.01753597,
        "meta_mean_motion_ddot": 0,
        "tle_line1": "1 67100U 25298AB  25357.25001157 -.01753597  00000+0 -73651-2 0  9995",
        "tle_line2": "2 67100  69.9956 220.0935 0003589 274.9843 186.6486 15.88183880  2666"
      },
      "geometry": {
        "type": "Point",
        "coordinates": [
          4.762211337461807,
          56.449904409366766
        ]
      }
    },
    {
      "type": "Feature",
      "properties": {
        "norad_id": 67101,
        "name": "STARLINK-36200",
        "group": "last-30-days",
        "lat": 59.26770522951889,
        "lon": 0.30011085487182987,
        "alt_km": 310.48768791797283,
        "timestamp": "2025-12-23T22:42:31.704681+00:00",
        "meta_object_name": "STARLINK-36200",
        "meta_object_id": "2025-298AC",
        "meta_epoch": "2025-12-23T06:00:00.999648",
        "meta_mean_motion": 15.88178269,
        "meta_eccentricity": 0.00037374,
        "meta_inclination": 69.9959,
        "meta_ra_of_asc_node": 220.0981,
        "meta_arg_of_pericenter": 273.8031,
        "meta_mean_anomaly": 184.1675,
        "meta_ephemeris_type": 0,
        "meta_classification_type": "U",
        "meta_norad_cat_id": 67101,
        "meta_element_set_no": 999,
        "meta_rev_at_epoch": 266,
        "meta_bstar": -0.0073718783,
        "meta_mean_motion_dot": -0.01754771,
        "meta_mean_motion_ddot": 0,
        "tle_line1": "1 67101U 25298AC  25357.25001157 -.01754771  00000+0 -73719-2 0  9996",
        "tle_line2": "2 67101  69.9959 220.0981 0003737 273.8031 184.1675 15.88178269  2661"
      },
      "geometry": {
        "type": "Point",
        "coordinates": [
          0.30011085487182987,
          59.26770522951889
        ]
      }
    }
  ]
}